{
    "links": {
        "self": "http://www.neowsapp.com/rest/v1/neo/3666626?api_key=iIulBulltgU6a56xZRHN4H3l9WmuAYTsLGpBGhQ2"
    },
    "id": "3666626",
    "neo_reference_id": "3666626",
    "name": "(2014 FG33)",
    "designation": "2014 FG33",
    "nasa_jpl_url": "http://ssd.jpl.nasa.gov/sbdb.cgi?sstr=3666626",
    "absolute_magnitude_h": 25.1,
    "estimated_diameter": {
        "kilometers": {
            "estimated_diameter_min": 0.0253837029,
            "estimated_diameter_max": 0.0567596853
        },
        "meters": {
            "estimated_diameter_min": 25.3837029364,
            "estimated_diameter_max": 56.7596852866
        },
        "miles": {
            "estimated_diameter_min": 0.0157726969,
            "estimated_diameter_max": 0.0352688224
        },
        "feet": {
            "estimated_diameter_min": 83.279867942,
            "estimated_diameter_max": 186.2194458756
        }
    },
    "is_potentially_hazardous_asteroid": false,
    "close_approach_data": [
        {
            "close_approach_date": "2013-10-20",
            "close_approach_date_full": "2013-Oct-20 19:56",
            "epoch_date_close_approach": 1382298960000,
            "relative_velocity": {
                "kilometers_per_second": "12.5252864209",
                "kilometers_per_hour": "45091.0311151882",
                "miles_per_hour": "28017.813194879"
            },
            "miss_distance": {
                "astronomical": "0.2801044898",
                "lunar": "108.9606465322",
                "kilometers": "41903035.051516726",
                "miles": "26037338.6135777788"
            },
            "orbiting_body": "Earth"
        },
        {
            "close_approach_date": "2014-03-15",
            "close_approach_date_full": "2014-Mar-15 13:35",
            "epoch_date_close_approach": 1394890500000,
            "relative_velocity": {
                "kilometers_per_second": "12.5309519102",
                "kilometers_per_hour": "45111.4268766808",
                "miles_per_hour": "28030.486327902"
            },
            "miss_distance": {
                "astronomical": "0.1458447311",
                "lunar": "56.7336003979",
                "kilometers": "21818061.123282757",
                "miles": "13557114.5302537666"
            },
            "orbiting_body": "Earth"
        }
    ],
    "orbital_data": {
        "orbit_id": "4",
        "orbit_determination_date": "2017-04-06 08:41:56",
        "first_observation_date": "2014-03-24",
        "last_observation_date": "2014-03-28",
        "data_arc_in_days": 4,
        "observations_used": 7,
        "orbit_uncertainty": "9",
        "minimum_orbit_intersection": ".143223",
        "jupiter_tisserand_invariant": "4.773",
        "epoch_osculation": "2456741.5",
        "eccentricity": ".2620930555403627",
        "semi_major_axis": "1.346198142388055",
        "inclination": "22.45609827771159",
        "ascending_node_longitude": "3.861196946544074",
        "orbital_period": "570.5082214145309",
        "perihelion_distance": ".9933689578868092",
        "perihelion_argument": "107.249758931778",
        "aphelion_distance": "1.6990273268893",
        "perihelion_time": "2456669.415861857095",
        "mean_anomaly": "45.48626778261683",
        "mean_motion": ".6310163227926986",
        "equinox": "J2000",
        "orbit_class": {
            "orbit_class_type": "APO",
            "orbit_class_description": "Near-Earth asteroid orbits which cross the Earth’s orbit similar to that of 1862 Apollo",
            "orbit_class_range": "a (semi-major axis) > 1.0 AU; q (perihelion) < 1.017 AU"
        }
    },
    "is_sentry_object": false
}